SAR-LUPE 2              
1 31797U 07030A   26184.60150832  .00045845  00000+0  74179-3 0  9999
2 31797  98.1066 291.1001 0003293 224.1014 135.9975 15.52692613 59489
SAPPHIRE                
1 39088U 13009C   26183.77798967  .00000120  00000+0  56799-4 0  9993
2 39088  98.4267   2.8639 0010800 196.6808 163.4024 14.35244915698811
PRAETORIAN SDA_602      
1 65565U 25203A   26183.85512076  .00000102  00000+0  81118-4 0  9998
2 65565  81.3032 356.2587 0006655 146.7193 213.4383 13.83887074 40866
PRAETORIAN SDA_603      
1 65566U 25203B   26183.81175853  .00003120  00000+0  27998-2 0  9990
2 65566  81.3065 356.2198 0010322 142.6945 217.4930 13.83925227 40862
PRAETORIAN SDA_604      
1 65567U 25203C   26183.84117644  .00000065  00000+0  48760-4 0  9995
2 65567  81.3055 356.6301 0006110 150.2787 209.8717 13.83049189 40841
PRAETORIAN SDA_605      
1 65568U 25203D   26183.80214313  .00000023  00000+0  10188-4 0  9990
2 65568  81.3021 356.3141 0008901 142.2371 217.9411 13.83435092 40858
PRAETORIAN SDA_606      
1 65569U 25203E   26183.71504228  .00000065  00000+0  48612-4 0  9997
2 65569  81.3058 356.6281 0006758 145.3381 214.8217 13.83199270 40833
PRAETORIAN SDA_607      
1 65570U 25203F   26183.85546954 -.00003451  00000+0 -31048-2 0  9993
2 65570  81.3046 356.1319 0009133 148.8430 211.3270 13.84254779 40874
PRAETORIAN SDA_608      
1 65571U 25203G   26183.83811347  .00000088  00000+0  68468-4 0  9992
2 65571  81.3010 356.3163 0006611 149.3901 210.7643 13.83818553 40852
PRAETORIAN SDA_609      
1 65572U 25203H   26183.83858937  .00000213  00000+0  18054-3 0  9994
2 65572  81.3049 356.2962 0007507 144.4622 215.7037 13.84210698 40862
PRAETORIAN SDA_610      
1 65573U 25203J   26183.81840358  .00000076  00000+0  58180-4 0  9993
2 65573  81.3011 356.2940 0007383 149.1111 211.0481 13.83769250 40858
PRAETORIAN SDA_611      
1 65574U 25203K   26183.82438276  .00000439  00000+0  38950-3 0  9992
2 65574  81.3015 356.4647 0006172 152.8637 207.2843 13.83310718 40847
PRAETORIAN SDA_612      
1 65575U 25203L   26183.72224275  .00000165  00000+0  13507-3 0  9991
2 65575  81.3022 356.1077 0009984 145.4384 214.7424 13.85040999 40864
PRAETORIAN SDA_613      
1 65576U 25203M   26183.83727478  .00000073  00000+0  55880-4 0  9996
2 65576  81.3002 356.4622 0006365 143.5306 216.6284 13.82766691 40849
PRAETORIAN SDA_614      
1 65577U 25203N   26183.42534083  .00000043  00000+0  27247-4 0  9993
2 65577  81.3016 356.4646 0007826 143.8446 216.3242 13.84778391 40823
PRAETORIAN SDA_615      
1 65578U 25203P   26183.83960729  .00000202  00000+0  16964-3 0  9999
2 65578  81.3023 356.0543 0009711 144.0896 216.0915 13.84437727 40875
PRAETORIAN SDA_616      
1 65579U 25203Q   26183.82406368  .00000209  00000+0  17969-3 0  9996
2 65579  81.3066 356.6211 0006080 150.9884 209.1612 13.83269442 40840
PRAETORIAN SDA_617      
1 65580U 25203R   26183.84700203  .00000061  00000+0  44840-4 0  9990
2 65580  81.3040 356.4295 0008096 143.2612 216.9101 13.83151280 40857
PRAETORIAN SDA_618      
1 65581U 25203S   26183.73277182  .00000219  00000+0  18520-3 0  9994
2 65581  81.3016 356.0813 0010464 147.7075 212.4724 13.84225059 40867
PRAETORIAN SDA_619      
1 65582U 25203T   26183.84871051  .00000162  00000+0  13566-3 0  9994
2 65582  81.3045 356.2917 0008903 144.8170 215.3576 13.83806831 41495
PRAETORIAN SDA_620      
1 65583U 25203U   26183.73425556 -.00008305  00000+0 -75514-2 0  9997
2 65583  81.3057 356.4185 0008501 152.4200 207.7409 13.83561694 40844
PRAETORIAN SDA_621      
1 65584U 25203V   26183.85053028  .00000076  00000+0  57483-4 0  9994
2 65584  81.3023 356.2247 0008155 138.3949 221.7830 13.83802908 40865
PRAETORIAN SDA_601      
1 65585U 25203W   26183.82833032  .00000037  00000+0  22493-4 0  9993
2 65585  81.3042 356.5592 0006102 153.6874 206.4593 13.83169137 40844
VICTUS HAZE PUMA        
1 69646U 26142A   26184.66505231  .00000368  00000+0  19825-4 0  9990
2 69646  97.4480  82.1024 0025802 308.9584  50.9352 15.20705209  2171
